{
  "type": "FeatureCollection",
  "features": [
    {
      "type": "Feature",
      "properties": {
        "norad_id": 64902,
        "name": "CO3D 2",
        "group": "resource",
        "lat": -5.468789659639226,
        "lon": 60.35175066796302,
        "alt_km": 509.0197935461165,
        "timestamp": "2025-12-09T07:41:32.860979+00:00",
        "meta_object_name": "CO3D 2",
        "meta_object_id": "2025-156D",
        "meta_epoch": "2025-12-08T23:49:04.736352",
        "meta_mean_motion": 15.20209929,
        "meta_eccentricity": 9.456e-05,
        "meta_inclination": 97.434,
        "meta_ra_of_asc_node": 59.3121,
        "meta_arg_of_pericenter": 90.4711,
        "meta_mean_anomaly": 269.6632,
        "meta_ephemeris_type": 0,
        "meta_classification_type": "U",
        "meta_norad_cat_id": 64902,
        "meta_element_set_no": 999,
        "meta_rev_at_epoch": 2063,
        "meta_bstar": 0.00033700537,
        "meta_mean_motion_dot": 7.236e-05,
        "meta_mean_motion_ddot": 0,
        "tle_line1": "1 64902U 25156D   25342.99241593  .00007236  00000+0  33701-3 0  9992",
        "tle_line2": "2 64902  97.4340  59.3121 0000945  90.4711 269.6632 15.20209929 20635"
      },
      "geometry": {
        "type": "Point",
        "coordinates": [
          60.35175066796302,
          -5.468789659639226
        ]
      }
    },
    {
      "type": "Feature",
      "properties": {
        "norad_id": 64903,
        "name": "CO3D 1",
        "group": "resource",
        "lat": -6.3310747145943065,
        "lon": 60.46561116752878,
        "alt_km": 509.27093917440106,
        "timestamp": "2025-12-09T07:41:32.860990+00:00",
        "meta_object_name": "CO3D 1",
        "meta_object_id": "2025-156E",
        "meta_epoch": "2025-12-08T23:49:18.257088",
        "meta_mean_motion": 15.20197967,
        "meta_eccentricity": 9.669e-05,
        "meta_inclination": 97.4341,
        "meta_ra_of_asc_node": 59.3123,
        "meta_arg_of_pericenter": 99.3725,
        "meta_mean_anomaly": 260.762,
        "meta_ephemeris_type": 0,
        "meta_classification_type": "U",
        "meta_norad_cat_id": 64903,
        "meta_element_set_no": 999,
        "meta_rev_at_epoch": 2063,
        "meta_bstar": 0.00034010845,
        "meta_mean_motion_dot": 7.301e-05,
        "meta_mean_motion_ddot": 0,
        "tle_line1": "1 64903U 25156E   25342.99257242  .00007301  00000+0  34011-3 0  9999",
        "tle_line2": "2 64903  97.4341  59.3123 0000966  99.3725 260.7620 15.20197967 20632"
      },
      "geometry": {
        "type": "Point",
        "coordinates": [
          60.46561116752878,
          -6.3310747145943065
        ]
      }
    },
    {
      "type": "Feature",
      "properties": {
        "norad_id": 66514,
        "name": "SENTINEL-6B",
        "group": "resource",
        "lat": 16.731552530400265,
        "lon": -18.135046699731113,
        "alt_km": 1329.400378409341,
        "timestamp": "2025-12-09T07:41:32.861000+00:00",
        "meta_object_name": "SENTINEL-6B",
        "meta_object_id": "2025-264A",
        "meta_epoch": "2025-12-08T21:30:18.918720",
        "meta_mean_motion": 12.84031984,
        "meta_eccentricity": 0.00210409,
        "meta_inclination": 66.0385,
        "meta_ra_of_asc_node": 170.4334,
        "meta_arg_of_pericenter": 268.2483,
        "meta_mean_anomaly": 91.6124,
        "meta_ephemeris_type": 0,
        "meta_classification_type": "U",
        "meta_norad_cat_id": 66514,
        "meta_element_set_no": 999,
        "meta_rev_at_epoch": 279,
        "meta_bstar": 0.00010479155,
        "meta_mean_motion_dot": -3.6e-07,
        "meta_mean_motion_ddot": 0,
        "tle_line1": "1 66514U 25264A   25342.89605230 -.00000036  00000+0  10479-3 0  9993",
        "tle_line2": "2 66514  66.0385 170.4334 0021040 268.2483  91.6124 12.84031984  2795"
      },
      "geometry": {
        "type": "Point",
        "coordinates": [
          -18.135046699731113,
          16.731552530400265
        ]
      }
    }
  ]
}